[{"OBJECT_NAME":"ICESAT-2","OBJECT_ID":"2018-070A","EPOCH":"2026-03-09T22:54:12.225888","MEAN_MOTION":15.28328617,"ECCENTRICITY":0.00038245,"INCLINATION":91.9993,"RA_OF_ASC_NODE":264.2397,"ARG_OF_PERICENTER":123.8941,"MEAN_ANOMALY":236.2673,"EPHEMERIS_TYPE":0,"CLASSIFICATION_TYPE":"U","NORAD_CAT_ID":43613,"ELEMENT_SET_NO":999,"REV_AT_EPOCH":41730,"BSTAR":0.00014022643,"MEAN_MOTION_DOT":3.87e-5,"MEAN_MOTION_DDOT":0},{"OBJECT_NAME":"STARLINK-31291","OBJECT_ID":"2024-041Y","EPOCH":"2026-03-09T01:05:04.867872","MEAN_MOTION":15.27575207,"ECCENTRICITY":0.00010879,"INCLINATION":43.0032,"RA_OF_ASC_NODE":314.2775,"ARG_OF_PERICENTER":284.5172,"MEAN_ANOMALY":75.5559,"EPHEMERIS_TYPE":0,"CLASSIFICATION_TYPE":"U","NORAD_CAT_ID":59096,"ELEMENT_SET_NO":999,"REV_AT_EPOCH":11417,"BSTAR":5.7830231e-5,"MEAN_MOTION_DOT":1.329e-5,"MEAN_MOTION_DDOT":0}]
